start=new Date('2023-01-22T00:00:00.000Z').valueOf();
sats=[{"MEAN_MOTION_DOT":"0.00006475","DECAY_DATE":null,"INCLINATION":"53.2136","RCS_SIZE":"LARGE","TLE_LINE1":"1 49748U 21115AA  23021.87933165  .00006475  00000-0  42437-3 0  9997","MEAN_MOTION_DDOT":"0.0000000000000","OBJECT_NAME":"STARLINK-3248","TIME_SYSTEM":"UTC","RA_OF_ASC_NODE":"239.4065","PERIAPSIS":"538.534","BSTAR":"0.00042437000000","MEAN_MOTION":"15.08852478","NORAD_CAT_ID":"49748","ELEMENT_SET_NO":"999","PERIOD":"95.437","ARG_OF_PERICENTER":"69.9386","SITE":"AFETR","REV_AT_EPOCH":"6412","EPOCH":"2023-01-21T21:06:14.254560","COUNTRY_CODE":"US","GP_ID":"223580488","OBJECT_TYPE":"PAYLOAD","MEAN_ELEMENT_THEORY":"SGP4","CENTER_NAME":"EARTH","EPHEMERIS_TYPE":"0","APOAPSIS":"540.881","LAUNCH_DATE":"2021-12-02","REF_FRAME":"TEME","TLE_LINE2":"2 49748  53.2136 239.4065 0001696  69.9386 290.1789 15.08852478 64123","MEAN_ANOMALY":"290.1789","OBJECT_ID":"2021-115AA","SEMIMAJOR_AXIS":"6917.842","CLASSIFICATION_TYPE":"U","ECCENTRICITY":"0.00016960","FILE":"3757293"},{"GP_ID":"223580492","COUNTRY_CODE":"US","LAUNCH_DATE":"2021-12-02","REF_FRAME":"TEME","APOAPSIS":"540.707","EPHEMERIS_TYPE":"0","CENTER_NAME":"EARTH","MEAN_ELEMENT_THEORY":"SGP4","OBJECT_TYPE":"PAYLOAD","CLASSIFICATION_TYPE":"U","SEMIMAJOR_AXIS":"6917.834","OBJECT_ID":"2021-115AB","MEAN_ANOMALY":"270.6222","TLE_LINE2":"2 49749  53.2134 239.4449 0001458  89.4938 270.6222 15.08855331 64119","FILE":"3757293","ECCENTRICITY":"0.00014580","TLE_LINE1":"1 49749U 21115AB  23021.86828899  .00007927  00000-0  51538-3 0  9999","RCS_SIZE":"LARGE","INCLINATION":"53.2134","DECAY_DATE":null,"MEAN_MOTION_DOT":"0.00007927","BSTAR":"0.00051538000000","MEAN_MOTION":"15.08855331","PERIAPSIS":"538.690","RA_OF_ASC_NODE":"239.4449","TIME_SYSTEM":"UTC","OBJECT_NAME":"STARLINK-3250","MEAN_MOTION_DDOT":"0.0000000000000","ARG_OF_PERICENTER":"89.4938","PERIOD":"95.437","ELEMENT_SET_NO":"999","NORAD_CAT_ID":"49749","EPOCH":"2023-01-21T20:50:20.168736","REV_AT_EPOCH":"6411","SITE":"AFETR"},{"MEAN_ELEMENT_THEORY":"SGP4","EPHEMERIS_TYPE":"0","CENTER_NAME":"EARTH","APOAPSIS":"540.662","REF_FRAME":"TEME","LAUNCH_DATE":"2021-12-02","OBJECT_TYPE":"PAYLOAD","COUNTRY_CODE":"US","GP_ID":"223556255","FILE":"3756239","ECCENTRICITY":"0.00013300","CLASSIFICATION_TYPE":"U","TLE_LINE2":"2 49750  53.2146 243.8239 0001330  83.3210 276.7933 15.08841130 63976","OBJECT_ID":"2021-115AC","MEAN_ANOMALY":"276.7933","SEMIMAJOR_AXIS":"6917.877","BSTAR":"0.00012036000000","MEAN_MOTION":"15.08841130","MEAN_MOTION_DDOT":"0.0000000000000","OBJECT_NAME":"STARLINK-3236","RA_OF_ASC_NODE":"243.8239","TIME_SYSTEM":"UTC","PERIAPSIS":"538.822","TLE_LINE1":"1 49750U 21115AC  23020.89308881  .00001628  00000-0  12036-3 0  9999","MEAN_MOTION_DOT":"0.00001628","DECAY_DATE":null,"INCLINATION":"53.2146","RCS_SIZE":"LARGE","SITE":"AFETR","REV_AT_EPOCH":"6397","EPOCH":"2023-01-20T21:26:02.873184","PERIOD":"95.437","ARG_OF_PERICENTER":"83.3210","NORAD_CAT_ID":"49750","ELEMENT_SET_NO":"999"},{"COUNTRY_CODE":"US","GP_ID":"223580481","CENTER_NAME":"EARTH","EPHEMERIS_TYPE":"0","MEAN_ELEMENT_THEORY":"SGP4","LAUNCH_DATE":"2021-12-02","REF_FRAME":"TEME","APOAPSIS":"540.795","OBJECT_TYPE":"PAYLOAD","CLASSIFICATION_TYPE":"U","OBJECT_ID":"2021-115AD","MEAN_ANOMALY":"266.9671","TLE_LINE2":"2 49751  53.2155 239.4153 0001546  93.1498 266.9671 15.08846504 64127","SEMIMAJOR_AXIS":"6917.861","FILE":"3757298","ECCENTRICITY":"0.00015460","TLE_LINE1":"1 49751U 21115AD  23021.87565377  .00001460  00000-0  10977-3 0  9990","DECAY_DATE":null,"MEAN_MOTION_DOT":"0.00001460","RCS_SIZE":"LARGE","INCLINATION":"53.2155","MEAN_MOTION":"15.08846504","BSTAR":"0.00010977000000","OBJECT_NAME":"STARLINK-3229","MEAN_MOTION_DDOT":"0.0000000000000","PERIAPSIS":"538.656","RA_OF_ASC_NODE":"239.4153","TIME_SYSTEM":"UTC","PERIOD":"95.437","ARG_OF_PERICENTER":"93.1498","ELEMENT_SET_NO":"999","NORAD_CAT_ID":"49751","REV_AT_EPOCH":"6412","SITE":"AFETR","EPOCH":"2023-01-21T21:00:56.485728"},{"OBJECT_TYPE":"PAYLOAD","CENTER_NAME":"EARTH","EPHEMERIS_TYPE":"0","MEAN_ELEMENT_THEORY":"SGP4","REF_FRAME":"TEME","LAUNCH_DATE":"2021-12-02","APOAPSIS":"540.607","GP_ID":"223580741","COUNTRY_CODE":"US","ECCENTRICITY":"0.00012790","FILE":"3757293","MEAN_ANOMALY":"276.9454","OBJECT_ID":"2021-115AE","TLE_LINE2":"2 49752  53.2117 230.7928 0001279  83.1684 276.9454 15.08847723 64213","SEMIMAJOR_AXIS":"6917.857","CLASSIFICATION_TYPE":"U","OBJECT_NAME":"STARLINK-3209","MEAN_MOTION_DDOT":"0.0000000000000","PERIAPSIS":"538.837","TIME_SYSTEM":"UTC","RA_OF_ASC_NODE":"230.7928","BSTAR":"0.00027926000000","MEAN_MOTION":"15.08847723","DECAY_DATE":null,"MEAN_MOTION_DOT":"0.00004160","RCS_SIZE":"LARGE","INCLINATION":"53.2117","TLE_LINE1":"1 49752U 21115AE  23021.57113214  .00004160  00000-0  27926-3 0  9999","REV_AT_EPOCH":"6421","SITE":"AFETR","EPOCH":"2023-01-21T13:42:25.816896","ELEMENT_SET_NO":"999","NORAD_CAT_ID":"49752","PERIOD":"95.437","ARG_OF_PERICENTER":"83.1684"},{"GP_ID":"223556251","COUNTRY_CODE":"US","MEAN_ELEMENT_THEORY":"SGP4","CENTER_NAME":"EARTH","EPHEMERIS_TYPE":"0","APOAPSIS":"540.660","REF_FRAME":"TEME","LAUNCH_DATE":"2021-12-02","OBJECT_TYPE":"PAYLOAD","CLASSIFICATION_TYPE":"U","TLE_LINE2":"2 49753  53.2139 243.8521 0001388  91.3584 268.7567 15.08854982 63974","OBJECT_ID":"2021-115AF","MEAN_ANOMALY":"268.7567","SEMIMAJOR_AXIS":"6917.835","FILE":"3756239","ECCENTRICITY":"0.00013880","TLE_LINE1":"1 49753U 21115AF  23020.88941994  .00010754  00000-0  69245-3 0  9993","MEAN_MOTION_DOT":"0.00010754","DECAY_DATE":null,"INCLINATION":"53.2139","RCS_SIZE":"LARGE","BSTAR":"0.00069245000000","MEAN_MOTION":"15.08854982","MEAN_MOTION_DDOT":"0.0000000000000","OBJECT_NAME":"STARLINK-3200","RA_OF_ASC_NODE":"243.8521","TIME_SYSTEM":"UTC","PERIAPSIS":"538.739","PERIOD":"95.437","ARG_OF_PERICENTER":"91.3584","NORAD_CAT_ID":"49753","ELEMENT_SET_NO":"999","SITE":"AFETR","REV_AT_EPOCH":"6397","EPOCH":"2023-01-20T21:20:45.882816"},{"FILE":"3756241","ECCENTRICITY":"0.00013040","CLASSIFICATION_TYPE":"U","SEMIMAJOR_AXIS":"6917.851","MEAN_ANOMALY":"265.1261","OBJECT_ID":"2021-115AG","TLE_LINE2":"2 49754  53.2142 233.7797 0001304  94.9880 265.1261 15.08849489 64113","REF_FRAME":"TEME","LAUNCH_DATE":"2021-12-02","APOAPSIS":"540.618","CENTER_NAME":"EARTH","EPHEMERIS_TYPE":"0","MEAN_ELEMENT_THEORY":"SGP4","OBJECT_TYPE":"PAYLOAD","COUNTRY_CODE":"US","GP_ID":"223556283","EPOCH":"2023-01-20T21:39:21.547008","REV_AT_EPOCH":"6411","SITE":"AFETR","ARG_OF_PERICENTER":"94.9880","PERIOD":"95.437","NORAD_CAT_ID":"49754","ELEMENT_SET_NO":"999","BSTAR":"0.00035571000000","MEAN_MOTION":"15.08849489","PERIAPSIS":"538.814","RA_OF_ASC_NODE":"233.7797","TIME_SYSTEM":"UTC","OBJECT_NAME":"STARLINK-3193","MEAN_MOTION_DDOT":"0.0000000000000","TLE_LINE1":"1 49754U 21115AG  23020.90233272  .00005379  00000-0  35571-3 0  9992","RCS_SIZE":"LARGE","INCLINATION":"53.2142","DECAY_DATE":null,"MEAN_MOTION_DOT":"0.00005379"},{"CLASSIFICATION_TYPE":"U","SEMIMAJOR_AXIS":"6917.841","TLE_LINE2":"2 49755  53.2129 240.5340 0001421  82.7415 277.3739 15.08852745 64088","OBJECT_ID":"2021-115AH","MEAN_ANOMALY":"277.3739","FILE":"3757293","ECCENTRICITY":"0.00014210","GP_ID":"223580494","COUNTRY_CODE":"US","APOAPSIS":"540.689","REF_FRAME":"TEME","LAUNCH_DATE":"2021-12-02","MEAN_ELEMENT_THEORY":"SGP4","CENTER_NAME":"EARTH","EPHEMERIS_TYPE":"0","OBJECT_TYPE":"PAYLOAD","ARG_OF_PERICENTER":"82.7415","PERIOD":"95.437","NORAD_CAT_ID":"49755","ELEMENT_SET_NO":"999","EPOCH":"2023-01-21T15:00:35.476704","SITE":"AFETR","REV_AT_EPOCH":"6408","TLE_LINE1":"1 49755U 21115AH  23021.62541061  .00008526  00000-0  55296-3 0  9994","INCLINATION":"53.2129","RCS_SIZE":"LARGE","MEAN_MOTION_DOT":"0.00008526","DECAY_DATE":null,"BSTAR":"0.00055296000000","MEAN_MOTION":"15.08852745","TIME_SYSTEM":"UTC","RA_OF_ASC_NODE":"240.5340","PERIAPSIS":"538.723","MEAN_MOTION_DDOT":"0.0000000000000","OBJECT_NAME":"STARLINK-3210"},{"ECCENTRICITY":"0.00014900","FILE":"3757034","SEMIMAJOR_AXIS":"6917.849","OBJECT_ID":"2021-115AJ","MEAN_ANOMALY":"284.3992","TLE_LINE2":"2 49756  53.2152 231.9113 0001490  75.7166 284.3992 15.08850294 64174","CLASSIFICATION_TYPE":"U","OBJECT_TYPE":"PAYLOAD","LAUNCH_DATE":"2021-12-02","REF_FRAME":"TEME","APOAPSIS":"540.745","CENTER_NAME":"EARTH","EPHEMERIS_TYPE":"0","MEAN_ELEMENT_THEORY":"SGP4","GP_ID":"223574813","COUNTRY_CODE":"US","EPOCH":"2023-01-21T07:36:47.134944","REV_AT_EPOCH":"6417","SITE":"AFETR","NORAD_CAT_ID":"49756","ELEMENT_SET_NO":"999","ARG_OF_PERICENTER":"75.7166","PERIOD":"95.437","PERIAPSIS":"538.683","TIME_SYSTEM":"UTC","RA_OF_ASC_NODE":"231.9113","OBJECT_NAME":"STARLINK-3207","MEAN_MOTION_DDOT":"0.0000000000000","BSTAR":"0.00055000000000","MEAN_MOTION":"15.08850294","RCS_SIZE":"LARGE","INCLINATION":"53.2152","DECAY_DATE":null,"MEAN_MOTION_DOT":"0.00008479","TLE_LINE1":"1 49756U 21115AJ  23021.31721221  .00008479  00000-0  55000-3 0  9999"},{"APOAPSIS":"540.769","REF_FRAME":"TEME","LAUNCH_DATE":"2021-12-02","MEAN_ELEMENT_THEORY":"SGP4","EPHEMERIS_TYPE":"0","CENTER_NAME":"EARTH","OBJECT_TYPE":"PAYLOAD","GP_ID":"223574607","COUNTRY_CODE":"US","FILE":"3757034","ECCENTRICITY":"0.00014830","CLASSIFICATION_TYPE":"U","SEMIMAJOR_AXIS":"6917.878","TLE_LINE2":"2 49757  53.2153 231.6483 0001483  83.4168 276.6992 15.08840645 64187","MEAN_ANOMALY":"276.6992","OBJECT_ID":"2021-115AK","BSTAR":"0.00009194300000","MEAN_MOTION":"15.08840645","TIME_SYSTEM":"UTC","RA_OF_ASC_NODE":"231.6483","PERIAPSIS":"538.717","MEAN_MOTION_DDOT":"0.0000000000000","OBJECT_NAME":"STARLINK-3197","TLE_LINE1":"1 49757U 21115AK  23021.37609680  .00001176  00000-0  91943-4 0  9994","INCLINATION":"53.2153","RCS_SIZE":"LARGE","MEAN_MOTION_DOT":"0.00001176","DECAY_DATE":null,"EPOCH":"2023-01-21T09:01:34.763520","SITE":"AFETR","REV_AT_EPOCH":"6418","ARG_OF_PERICENTER":"83.4168","PERIOD":"95.438","NORAD_CAT_ID":"49757","ELEMENT_SET_NO":"999"}];
